SL-14 R/B               
1 17567U 87024B   26106.61264490  .00000278  00000+0  28736-4 0  9990
2 17567  82.5285  57.1141 0019394 131.7796 228.5081 14.86168858 93763
COSMOS 1833             
1 17589U 87027A   26106.66215122 -.00000310  00000+0 -13978-3 0  9990
2 17589  70.9161 246.1994 0022557 156.4408 203.7751 14.13037726 15689
SL-16 R/B               
1 17590U 87027B   26106.59610102 -.00000182  00000+0 -66612-4 0  9992
2 17590  71.0033 196.6152 0003135  45.2412 314.8967 14.17168771 20719
SL-14 R/B               
1 17912U 87038B   26106.69439933  .00000266  00000+0  27943-4 0  9999
2 17912  82.4989 260.9934 0020200  42.5207 317.7569 14.85404382 84873
COSMOS 1844             
1 17973U 87041A   26106.86880109 -.00000172  00000+0 -63729-4 0  9994
2 17973  70.8998 313.6482 0032474 321.6954  38.1861 14.14564388  8983
SL-14 R/B               
1 18153U 87055B   26106.59723538  .00000249  00000+0  25936-4 0  9993
2 18153  82.4975 313.3020 0019213 246.6975 113.2219 14.85663569 75567
COSMOS 1867             
1 18187U 87060A   26106.65545797 -.00000067  00000+0  12349-4 0  9995
2 18187  65.0108 200.3795 0015200 280.6542  79.2830 14.31508747 25374
SL-14 R/B               
1 18749U 88001B   26106.86463550  .00000245  00000+0  25436-4 0  9992
2 18749  82.5139 159.4651 0019563 110.6858 249.6458 14.85565588 47692
COSMOS 1933             
1 18958U 88020A   26106.75470150  .00002459  00000+0  11826-3 0  9993
2 18958  82.5154 213.2436 0005358  76.2816 283.9014 15.18338676 56006
SL-3 R/B                
1 19046U 88032B   26106.84591397  .00003053  00000+0  14232-3 0  9997
2 19046  97.5231  89.9863 0027676 100.3464 260.0892 15.20316056 57905
SL-16 R/B               
1 19120U 88039B   26106.39590405 -.00000060  00000+0 -56529-5 0  9990
2 19120  71.0166 348.8199 0024054 280.9274  78.9145 14.19622789963736
COSMOS 1953             
1 19210U 88050A   26106.78389950  .00005073  00000+0  17819-3 0  9991
2 19210  82.5044 119.9093 0010512   0.6134 359.5117 15.29099817 43608
SL-8 R/B                
1 19257U 88053B   26106.56918939  .00000088  00000+0  37120-4 0  9995
2 19257  74.0487  42.6389 0020956 216.2941 318.7140 14.38938463982041
