[
    {
        "OBJECT_NAME": "SL-14 R/B",
        "OBJECT_ID": "1987-024B",
        "EPOCH": "2026-04-16T14:42:12.519360",
        "MEAN_MOTION": 14.86168858,
        "ECCENTRICITY": 0.0019394,
        "INCLINATION": 82.5285,
        "RA_OF_ASC_NODE": 57.1141,
        "ARG_OF_PERICENTER": 131.7796,
        "MEAN_ANOMALY": 228.5081,
        "EPHEMERIS_TYPE": 0,
        "CLASSIFICATION_TYPE": "U",
        "NORAD_CAT_ID": 17567,
        "ELEMENT_SET_NO": 999,
        "REV_AT_EPOCH": 9376,
        "BSTAR": 2.8736e-05,
        "MEAN_MOTION_DOT": 2.78e-06,
        "MEAN_MOTION_DDOT": 0
    },
    {
        "OBJECT_NAME": "COSMOS 1833",
        "OBJECT_ID": "1987-027A",
        "EPOCH": "2026-04-16T15:53:29.865408",
        "MEAN_MOTION": 14.13037726,
        "ECCENTRICITY": 0.0022557,
        "INCLINATION": 70.9161,
        "RA_OF_ASC_NODE": 246.1994,
        "ARG_OF_PERICENTER": 156.4408,
        "MEAN_ANOMALY": 203.7751,
        "EPHEMERIS_TYPE": 0,
        "CLASSIFICATION_TYPE": "U",
        "NORAD_CAT_ID": 17589,
        "ELEMENT_SET_NO": 999,
        "REV_AT_EPOCH": 1568,
        "BSTAR": -0.00013978,
        "MEAN_MOTION_DOT": -3.1e-06,
        "MEAN_MOTION_DDOT": 0
    },
    {
        "OBJECT_NAME": "SL-16 R/B",
        "OBJECT_ID": "1987-027B",
        "EPOCH": "2026-04-16T14:18:23.128128",
        "MEAN_MOTION": 14.17168771,
        "ECCENTRICITY": 0.0003135,
        "INCLINATION": 71.0033,
        "RA_OF_ASC_NODE": 196.6152,
        "ARG_OF_PERICENTER": 45.2412,
        "MEAN_ANOMALY": 314.8967,
        "EPHEMERIS_TYPE": 0,
        "CLASSIFICATION_TYPE": "U",
        "NORAD_CAT_ID": 17590,
        "ELEMENT_SET_NO": 999,
        "REV_AT_EPOCH": 2071,
        "BSTAR": -6.6612e-05,
        "MEAN_MOTION_DOT": -1.82e-06,
        "MEAN_MOTION_DDOT": 0
    },
    {
        "OBJECT_NAME": "SL-14 R/B",
        "OBJECT_ID": "1987-038B",
        "EPOCH": "2026-04-16T16:39:56.102112",
        "MEAN_MOTION": 14.85404382,
        "ECCENTRICITY": 0.00202,
        "INCLINATION": 82.4989,
        "RA_OF_ASC_NODE": 260.9934,
        "ARG_OF_PERICENTER": 42.5207,
        "MEAN_ANOMALY": 317.7569,
        "EPHEMERIS_TYPE": 0,
        "CLASSIFICATION_TYPE": "U",
        "NORAD_CAT_ID": 17912,
        "ELEMENT_SET_NO": 999,
        "REV_AT_EPOCH": 8487,
        "BSTAR": 2.7943e-05,
        "MEAN_MOTION_DOT": 2.66e-06,
        "MEAN_MOTION_DDOT": 0
    },
    {
        "OBJECT_NAME": "COSMOS 1844",
        "OBJECT_ID": "1987-041A",
        "EPOCH": "2026-04-16T20:51:04.414176",
        "MEAN_MOTION": 14.14564388,
        "ECCENTRICITY": 0.0032474,
        "INCLINATION": 70.8998,
        "RA_OF_ASC_NODE": 313.6482,
        "ARG_OF_PERICENTER": 321.6954,
        "MEAN_ANOMALY": 38.1861,
        "EPHEMERIS_TYPE": 0,
        "CLASSIFICATION_TYPE": "U",
        "NORAD_CAT_ID": 17973,
        "ELEMENT_SET_NO": 999,
        "REV_AT_EPOCH": 898,
        "BSTAR": -6.3729e-05,
        "MEAN_MOTION_DOT": -1.72e-06,
        "MEAN_MOTION_DDOT": 0
    },
    {
        "OBJECT_NAME": "SL-14 R/B",
        "OBJECT_ID": "1987-055B",
        "EPOCH": "2026-04-16T14:20:01.136832",
        "MEAN_MOTION": 14.85663569,
        "ECCENTRICITY": 0.0019213,
        "INCLINATION": 82.4975,
        "RA_OF_ASC_NODE": 313.302,
        "ARG_OF_PERICENTER": 246.6975,
        "MEAN_ANOMALY": 113.2219,
        "EPHEMERIS_TYPE": 0,
        "CLASSIFICATION_TYPE": "U",
        "NORAD_CAT_ID": 18153,
        "ELEMENT_SET_NO": 999,
        "REV_AT_EPOCH": 7556,
        "BSTAR": 2.5936e-05,
        "MEAN_MOTION_DOT": 2.49e-06,
        "MEAN_MOTION_DDOT": 0
    },
    {
        "OBJECT_NAME": "COSMOS 1867",
        "OBJECT_ID": "1987-060A",
        "EPOCH": "2026-04-16T15:43:51.568608",
        "MEAN_MOTION": 14.31508747,
        "ECCENTRICITY": 0.00152,
        "INCLINATION": 65.0108,
        "RA_OF_ASC_NODE": 200.3795,
        "ARG_OF_PERICENTER": 280.6542,
        "MEAN_ANOMALY": 79.283,
        "EPHEMERIS_TYPE": 0,
        "CLASSIFICATION_TYPE": "U",
        "NORAD_CAT_ID": 18187,
        "ELEMENT_SET_NO": 999,
        "REV_AT_EPOCH": 2537,
        "BSTAR": 1.2349e-05,
        "MEAN_MOTION_DOT": -6.7e-07,
        "MEAN_MOTION_DDOT": 0
    },
    {
        "OBJECT_NAME": "SL-14 R/B",
        "OBJECT_ID": "1988-001B",
        "EPOCH": "2026-04-16T20:45:04.507200",
        "MEAN_MOTION": 14.85565588,
        "ECCENTRICITY": 0.0019563,
        "INCLINATION": 82.5139,
        "RA_OF_ASC_NODE": 159.4651,
        "ARG_OF_PERICENTER": 110.6858,
        "MEAN_ANOMALY": 249.6458,
        "EPHEMERIS_TYPE": 0,
        "CLASSIFICATION_TYPE": "U",
        "NORAD_CAT_ID": 18749,
        "ELEMENT_SET_NO": 999,
        "REV_AT_EPOCH": 4769,
        "BSTAR": 2.5436e-05,
        "MEAN_MOTION_DOT": 2.45e-06,
        "MEAN_MOTION_DDOT": 0
    },
    {
        "OBJECT_NAME": "COSMOS 1933",
        "OBJECT_ID": "1988-020A",
        "EPOCH": "2026-04-16T18:06:46.209600",
        "MEAN_MOTION": 15.18338676,
        "ECCENTRICITY": 0.0005358,
        "INCLINATION": 82.5154,
        "RA_OF_ASC_NODE": 213.2436,
        "ARG_OF_PERICENTER": 76.2816,
        "MEAN_ANOMALY": 283.9014,
        "EPHEMERIS_TYPE": 0,
        "CLASSIFICATION_TYPE": "U",
        "NORAD_CAT_ID": 18958,
        "ELEMENT_SET_NO": 999,
        "REV_AT_EPOCH": 5600,
        "BSTAR": 0.00011826,
        "MEAN_MOTION_DOT": 2.459e-05,
        "MEAN_MOTION_DDOT": 0
    },
    {
        "OBJECT_NAME": "SL-3 R/B",
        "OBJECT_ID": "1988-032B",
        "EPOCH": "2026-04-16T20:18:06.967008",
        "MEAN_MOTION": 15.20316056,
        "ECCENTRICITY": 0.0027676,
        "INCLINATION": 97.5231,
        "RA_OF_ASC_NODE": 89.9863,
        "ARG_OF_PERICENTER": 100.3464,
        "MEAN_ANOMALY": 260.0892,
        "EPHEMERIS_TYPE": 0,
        "CLASSIFICATION_TYPE": "U",
        "NORAD_CAT_ID": 19046,
        "ELEMENT_SET_NO": 999,
        "REV_AT_EPOCH": 5790,
        "BSTAR": 0.00014232,
        "MEAN_MOTION_DOT": 3.053e-05,
        "MEAN_MOTION_DDOT": 0
    },
    {
        "OBJECT_NAME": "SL-16 R/B",
        "OBJECT_ID": "1988-039B",
        "EPOCH": "2026-04-16T09:30:06.109920",
        "MEAN_MOTION": 14.19622789,
        "ECCENTRICITY": 0.0024054,
        "INCLINATION": 71.0166,
        "RA_OF_ASC_NODE": 348.8199,
        "ARG_OF_PERICENTER": 280.9274,
        "MEAN_ANOMALY": 78.9145,
        "EPHEMERIS_TYPE": 0,
        "CLASSIFICATION_TYPE": "U",
        "NORAD_CAT_ID": 19120,
        "ELEMENT_SET_NO": 999,
        "REV_AT_EPOCH": 96373,
        "BSTAR": -5.6529e-06,
        "MEAN_MOTION_DOT": -6e-07,
        "MEAN_MOTION_DDOT": 0
    },
    {
        "OBJECT_NAME": "COSMOS 1953",
        "OBJECT_ID": "1988-050A",
        "EPOCH": "2026-04-16T18:48:48.916800",
        "MEAN_MOTION": 15.29099817,
        "ECCENTRICITY": 0.0010512,
        "INCLINATION": 82.5044,
        "RA_OF_ASC_NODE": 119.9093,
        "ARG_OF_PERICENTER": 0.6134,
        "MEAN_ANOMALY": 359.5117,
        "EPHEMERIS_TYPE": 0,
        "CLASSIFICATION_TYPE": "U",
        "NORAD_CAT_ID": 19210,
        "ELEMENT_SET_NO": 999,
        "REV_AT_EPOCH": 4360,
        "BSTAR": 0.00017819,
        "MEAN_MOTION_DOT": 5.073e-05,
        "MEAN_MOTION_DDOT": 0
    },
    {
        "OBJECT_NAME": "SL-8 R/B",
        "OBJECT_ID": "1988-053B",
        "EPOCH": "2026-04-16T13:39:37.963296",
        "MEAN_MOTION": 14.38938463,
        "ECCENTRICITY": 0.0020956,
        "INCLINATION": 74.0487,
        "RA_OF_ASC_NODE": 42.6389,
        "ARG_OF_PERICENTER": 216.2941,
        "MEAN_ANOMALY": 318.714,
        "EPHEMERIS_TYPE": 0,
        "CLASSIFICATION_TYPE": "U",
        "NORAD_CAT_ID": 19257,
        "ELEMENT_SET_NO": 999,
        "REV_AT_EPOCH": 98204,
        "BSTAR": 3.712e-05,
        "MEAN_MOTION_DOT": 8.8e-07,
        "MEAN_MOTION_DDOT": 0
    }
]